{"type":"FeatureCollection","name":"brazil_states","crs":{"type":"name","properties":{"name":"urn:ogc:def:crs:OGC:1.3:CRS84"}},"features":[{"type":"Feature","properties":{"uf":"AC","state_name":"Acre"},"geometry":{"type":"Polygon","coordinates":[[[-67.135,-9.6759],[-72.9003,-7.4377],[-73.9193,-7.4653],[-73.6269,-8.0215],[-73.1424,-8.7227],[-73.186,-9.36],[-72.1407,-9.8775],[-70.7904,-9.6316],[-70.6205,-10.425],[-69.7601,-10.9392],[-68.9121,-11.0217],[-68.1053,-10.7152],[-67.4238,-10.3914],[-66.79,-10.022],[-67.135,-9.6759]]]}},{"type":"Feature","properties":{"uf":"AL","state_name":"Alagoas"},"geometry":{"type":"Polygon","coordinates":[[[-38.0121,-9.156],[-38.0778,-9.4411],[-37.6659,-9.6659],[-37.0859,-9.9517],[-36.7915,-10.2272],[-36.4869,-10.4232],[-36.045,-10.0739],[-35.5585,-9.4875],[-35.1527,-8.9139],[-35.7233,-8.9095],[-36.0639,-8.9153],[-36.3215,-9.1854],[-36.8798,-9.2764],[-37.1599,-9.2382],[-37.5958,-8.9688],[-38.0121,-9.156]]]}},{"type":"Feature","properties":{"uf":"AM","state_name":"Amazonas"},"geometry":{"type":"Polygon","coordinates":[[[-58.1474,-7.3432],[-56.8763,-1.9923],[-58.876,-0.3114],[-61.234,-0.5619],[-62.1967,-0.3629],[-63.4441,2.1252],[-65.2408,0.921],[-67.5864,2.0855],[-69.1157,0.644],[-69.6895,-2.8717],[-71.8095,-4.4919],[-73.5164,-6.6773],[-65.6794,-9.4514],[-63.7415,-8.1901],[-58.9628,-8.8028],[-58.1474,-7.3432]]]}},{"type":"Feature","properties":{"uf":"AP","state_name":"Amapá"},"geometry":{"type":"MultiPolygon","coordinates":[[[[-50.684,2.1437],[-50.9988,3.011],[-51.3942,4.365],[-51.8978,3.7982],[-52.3706,2.976],[-52.8726,2.2582],[-53.5499,2.2583],[-54.6849,2.4468],[-54.6019,1.7846],[-53.8236,1.3896],[-53.4558,1.0774],[-53.1314,0.2962],[-52.7027,-0.4592],[-52.4168,-1.0256],[-51.7004,-1.0632],[-50.7848,0.1121],[-50.0203,0.8588],[-50.0322,1.7597],[-50.684,2.1437]]],[[[-50.5088,2.1852],[-50.5501,2.1517],[-50.5077,2.0999],[-50.4226,2.1185],[-50.4239,2.1468],[-50.463,2.1823],[-50.5088,2.1852]]],[[[-50.4501,2.1092],[-50.5042,2.094],[-50.5212,2.0054],[-50.4986,1.9945],[-50.4549,1.8885],[-50.4255,1.867],[-50.367,1.8895],[-50.3174,1.9475],[-50.322,1.9752],[-50.3625,2.022],[-50.3608,2.0574],[-50.4054,2.1113],[-50.4501,2.1092]]]]}},{"type":"Feature","properties":{"uf":"BA","state_name":"Bahia"},"geometry":{"type":"Polygon","coordinates":[[[-39.3568,-8.5475],[-41.0212,-8.8436],[-43.0745,-9.4],[-44.627,-10.6756],[-46.4393,-11.521],[-46.3055,-13.2517],[-46.0478,-15.1637],[-43.615,-14.7599],[-40.9143,-15.661],[-40.5568,-17.0896],[-39.0111,-16.2458],[-38.2437,-12.8525],[-37.8308,-10.585],[-38.6936,-8.9187],[-39.3568,-8.5475]]]}},{"type":"Feature","properties":{"uf":"CE","state_name":"Ceará"},"geometry":{"type":"Polygon","coordinates":[[[-40.3719,-2.8124],[-41.2527,-3.0349],[-41.2393,-3.7128],[-41.1194,-4.3243],[-40.929,-5.1717],[-40.9039,-6.0209],[-40.4322,-6.813],[-40.1957,-7.3581],[-39.4557,-7.5019],[-38.9398,-7.7916],[-38.5544,-7.2519],[-38.6725,-6.7062],[-38.4331,-6.0781],[-38.0281,-5.6233],[-37.6403,-4.9264],[-37.9066,-4.3398],[-38.9179,-3.4943],[-39.7947,-2.9521],[-40.3719,-2.8124]]]}},{"type":"Feature","properties":{"uf":"DF","state_name":"Distrito Federal"},"geometry":{"type":"Polygon","coordinates":[[[-48.016,-16.0497],[-47.3769,-15.9619],[-47.3315,-15.6835],[-47.4927,-15.5019],[-48.1997,-15.6229],[-48.2818,-15.8306],[-48.016,-16.0497]]]}},{"type":"Feature","properties":{"uf":"ES","state_name":"Espírito Santo"},"geometry":{"type":"Polygon","coordinates":[[[-41.2714,-19.9422],[-41.7821,-20.2945],[-41.8747,-20.7659],[-41.6455,-21.1434],[-41.1371,-21.2274],[-40.795,-20.9252],[-40.3772,-20.5355],[-40.1545,-20.0121],[-39.7193,-19.097],[-40.2554,-17.9718],[-40.8306,-17.9542],[-41.1589,-18.3082],[-41.1105,-18.8389],[-41.0126,-19.0758],[-40.9883,-19.5079],[-41.2296,-19.907],[-41.2714,-19.9422]]]}},{"type":"Feature","properties":{"uf":"GO","state_name":"Goiás"},"geometry":{"type":"Polygon","coordinates":[[[-48.2349,-15.66],[-46.9251,-15.0575],[-45.9644,-14.2843],[-46.3976,-12.8513],[-48.1659,-13.1893],[-49.9778,-12.9406],[-50.8658,-13.9598],[-51.699,-15.4849],[-53.1107,-17.1081],[-52.5662,-18.6646],[-50.6457,-19.1348],[-48.828,-18.3752],[-47.314,-17.6998],[-47.3126,-16.0888],[-48.2349,-15.66]]]}},{"type":"Feature","properties":{"uf":"MA","state_name":"Maranhão"},"geometry":{"type":"MultiPolygon","coordinates":[[[[-48.0254,-4.7783],[-47.4688,-6.6212],[-46.4657,-8.0727],[-46.5693,-9.7697],[-45.7454,-8.4527],[-44.0591,-6.8084],[-43.08,-5.649],[-42.6697,-3.7284],[-42.6415,-2.6253],[-44.1023,-2.5971],[-44.6341,-2.2285],[-45.3238,-1.597],[-46.1146,-1.3519],[-46.779,-3.2411],[-48.0254,-4.7783]]],[[[-44.4815,-2.7266],[-44.5363,-2.7539],[-44.5862,-2.8147],[-44.5804,-2.8557],[-44.6311,-2.9879],[-44.5921,-3.0152],[-44.5609,-3.0225],[-44.479,-2.9579],[-44.4764,-2.888],[-44.4821,-2.808],[-44.4815,-2.7266]]],[[[-45.5359,-1.228],[-45.5393,-1.2052],[-45.5799,-1.1957],[-45.5781,-1.2308],[-45.5359,-1.228]]],[[[-44.9662,-1.2711],[-45.0288,-1.318],[-45.0053,-1.4008],[-44.9682,-1.3905],[-44.9014,-1.3372],[-44.8669,-1.3287],[-44.8781,-1.2855],[-44.929,-1.2668],[-44.9662,-1.2711]]],[[[-44.7517,-1.4684],[-44.7759,-1.4785],[-44.7915,-1.514],[-44.7507,-1.5173],[-44.7517,-1.4684]]],[[[-45.6912,-1.2654],[-45.6685,-1.222],[-45.688,-1.1837],[-45.709,-1.221],[-45.6912,-1.2654]]],[[[-43.5421,-2.3606],[-43.5581,-2.3555],[-43.6129,-2.3785],[-43.5815,-2.4233],[-43.5619,-2.4238],[-43.5421,-2.3606]]]]}},{"type":"Feature","properties":{"uf":"MG","state_name":"Minas Gerais"},"geometry":{"type":"Polygon","coordinates":[[[-47.6797,-18.3561],[-49.9815,-18.6046],[-50.2452,-19.8768],[-48.1786,-20.0962],[-47.1185,-21.1859],[-46.3745,-22.8202],[-44.4969,-22.3037],[-42.2356,-21.3429],[-40.9447,-19.461],[-40.2224,-17.9804],[-39.9576,-15.992],[-42.5157,-14.9829],[-45.1665,-14.7353],[-46.9251,-15.0575],[-47.3842,-17.2478],[-47.6797,-18.3561]]]}},{"type":"Feature","properties":{"uf":"MS","state_name":"Mato Grosso do Sul"},"geometry":{"type":"Polygon","coordinates":[[[-53.4039,-17.9926],[-54.3434,-17.6556],[-55.8866,-17.2848],[-57.4263,-17.8564],[-57.9634,-20.027],[-57.8459,-21.0969],[-57.6911,-22.0884],[-56.2126,-22.2758],[-55.4463,-23.9169],[-53.9874,-23.4666],[-52.2484,-21.9023],[-51.3435,-20.3556],[-51.5922,-19.1268],[-52.881,-18.4655],[-53.4039,-17.9926]]]}},{"type":"Feature","properties":{"uf":"MT","state_name":"Mato Grosso"},"geometry":{"type":"Polygon","coordinates":[[[-56.2723,-9.4008],[-57.8319,-7.9615],[-58.9628,-8.8028],[-61.5767,-10.2486],[-60.0942,-11.5628],[-60.3716,-13.3186],[-58.7857,-16.308],[-57.6231,-17.7364],[-55.8866,-17.2848],[-54.0581,-17.5131],[-53.2485,-17.6273],[-52.2569,-15.9309],[-51.099,-14.9253],[-50.5873,-12.9985],[-50.6645,-11.1516],[-56.2723,-9.4008]]]}},{"type":"Feature","properties":{"uf":"PA","state_name":"Pará"},"geometry":{"type":"MultiPolygon","coordinates":[[[[-48.1946,-4.911],[-46.5094,-2.5906],[-46.4238,-0.8665],[-47.6315,-0.7063],[-49.6657,0.0966],[-51.5151,-0.566],[-53.1365,0.326],[-54.8038,2.0258],[-56.1527,1.8908],[-58.4952,1.295],[-57.7953,-1.4872],[-56.9138,-3.5623],[-57.2895,-8.9158],[-49.2833,-8.3796],[-48.2998,-5.796],[-48.1946,-4.911]]],[[[-49.6263,0.1901],[-49.6607,0.1873],[-49.6775,0.1557],[-49.6535,0.145],[-49.6154,0.1528],[-49.6263,0.1901]]],[[[-49.4503,0.1172],[-49.4769,0.1482],[-49.5024,0.1174],[-49.4503,0.1172]]],[[[-49.6181,0.1992],[-49.5763,0.2197],[-49.6021,0.2428],[-49.6181,0.1992]]],[[[-48.8759,-0.182],[-48.887,-0.1532],[-48.93,-0.1605],[-48.9475,-0.2056],[-48.9246,-0.214],[-48.8813,-0.2033],[-48.8759,-0.182]]],[[[-46.3114,-1.006],[-46.3066,-0.9433],[-46.34,-0.9598],[-46.3114,-1.006]]]]}},{"type":"Feature","properties":{"uf":"PB","state_name":"Paraíba"},"geometry":{"type":"Polygon","coordinates":[[[-37.5718,-7.4891],[-37.161,-7.698],[-36.9912,-8.303],[-36.2166,-7.7641],[-35.3629,-7.4428],[-34.8691,-6.9781],[-35.6041,-6.4592],[-36.4998,-6.3582],[-36.76,-6.9145],[-37.4647,-6.5327],[-37.6732,-6.1906],[-38.4886,-6.3616],[-38.6914,-7.0291],[-38.4342,-7.7205],[-37.7349,-7.5972],[-37.5718,-7.4891]]]}},{"type":"Feature","properties":{"uf":"PE","state_name":"Pernambuco"},"geometry":{"type":"MultiPolygon","coordinates":[[[[-41.3583,-8.7076],[-40.5558,-9.4579],[-39.6738,-8.7455],[-38.6354,-8.9867],[-37.8262,-8.9327],[-36.8798,-9.2764],[-35.845,-8.8725],[-34.9609,-8.3667],[-35.4504,-7.4534],[-36.4801,-7.9248],[-37.3403,-7.9797],[-37.496,-7.3648],[-38.4095,-7.7305],[-39.4207,-7.603],[-40.5237,-7.3185],[-40.9078,-8.4014],[-41.3583,-8.7076]]],[[[-32.4313,-3.8455],[-32.4478,-3.8555],[-32.4249,-3.8775],[-32.4079,-3.8568],[-32.4313,-3.8455]]]]}},{"type":"Feature","properties":{"uf":"PI","state_name":"Piauí"},"geometry":{"type":"Polygon","coordinates":[[[-40.7643,-8.244],[-40.6022,-6.716],[-41.0819,-5.0876],[-41.3342,-3.684],[-41.8344,-2.9156],[-42.6841,-3.8034],[-42.799,-5.1897],[-42.8864,-6.5046],[-44.1713,-6.885],[-45.3983,-7.6393],[-45.8419,-9.5629],[-45.4288,-10.4139],[-44.1393,-10.6399],[-43.6216,-9.3715],[-42.4185,-9.4094],[-41.1495,-8.5339],[-40.7643,-8.244]]]}},{"type":"Feature","properties":{"uf":"PR","state_name":"Paraná"},"geometry":{"type":"MultiPolygon","coordinates":[[[[-49.1298,-24.6819],[-49.5673,-23.7368],[-49.9614,-22.9309],[-51.2137,-22.7237],[-52.3004,-22.6354],[-53.6993,-23.2349],[-54.3323,-24.6945],[-54.0966,-25.5214],[-53.4304,-26.2819],[-52.1588,-26.4662],[-51.1484,-26.2788],[-50.332,-26.0854],[-49.0202,-26.0157],[-48.3512,-25.0365],[-49.1298,-24.6819]]],[[[-53.6542,-25.3509],[-53.6251,-25.3464],[-53.6265,-25.3466],[-53.6542,-25.3509]]],[[[-53.3778,-23.2407],[-53.3781,-23.2409],[-53.3763,-23.2398],[-53.3778,-23.2407]]]]}},{"type":"Feature","properties":{"uf":"RJ","state_name":"Rio de Janeiro"},"geometry":{"type":"MultiPolygon","coordinates":[[[[-44.6387,-22.9142],[-44.6395,-23.3311],[-44.3207,-22.936],[-43.4198,-23.0176],[-43.1034,-22.8559],[-41.9898,-22.8827],[-41.2158,-22.1374],[-41.0399,-21.2551],[-41.7101,-20.9908],[-42.0848,-21.023],[-42.346,-21.5827],[-43.0755,-22.0929],[-43.6457,-22.0649],[-44.5437,-22.3323],[-44.3824,-22.5735],[-44.6295,-22.9049],[-44.6387,-22.9142]]],[[[-44.3498,-23.2155],[-44.3113,-23.1805],[-44.2717,-23.1798],[-44.2468,-23.2011],[-44.1591,-23.172],[-44.0945,-23.1748],[-44.148,-23.1249],[-44.2017,-23.1197],[-44.2163,-23.0898],[-44.2528,-23.0974],[-44.282,-23.1348],[-44.3062,-23.1212],[-44.3498,-23.2155]]],[[[-43.6678,-23.0531],[-43.881,-23.0421],[-43.793,-23.0639],[-43.6678,-23.0531]]],[[[-43.1752,-22.8012],[-43.2207,-22.7846],[-43.2657,-22.8112],[-43.2392,-22.8338],[-43.1752,-22.8012]]]]}},{"type":"Feature","properties":{"uf":"RN","state_name":"Rio Grande do Norte"},"geometry":{"type":"Polygon","coordinates":[[[-36.5044,-6.3865],[-35.9442,-6.493],[-35.1458,-6.5528],[-35.1541,-5.8978],[-35.4895,-5.157],[-36.611,-5.0786],[-37.6403,-4.9264],[-38.0281,-5.6233],[-38.4331,-6.0781],[-38.2565,-6.4832],[-37.6162,-6.1762],[-37.3634,-6.3222],[-37.1277,-6.7656],[-36.5679,-6.8748],[-36.5044,-6.3865]]]}},{"type":"Feature","properties":{"uf":"RO","state_name":"Rondônia"},"geometry":{"type":"Polygon","coordinates":[[[-62.4177,-13.1189],[-61.3287,-13.5036],[-60.3716,-13.3186],[-59.9714,-11.9699],[-60.35,-11.1083],[-61.5228,-9.9467],[-61.606,-8.7947],[-62.384,-8.3776],[-63.9108,-8.3285],[-64.8078,-8.9856],[-65.918,-9.4782],[-66.2377,-9.8146],[-65.3207,-10.0027],[-65.3354,-11.357],[-64.7129,-12.1736],[-63.4294,-12.5914],[-62.4177,-13.1189]]]}},{"type":"Feature","properties":{"uf":"RR","state_name":"Roraima"},"geometry":{"type":"Polygon","coordinates":[[[-64.1844,3.4893],[-63.6369,2.4406],[-62.6203,1.4038],[-62.2328,-0.4245],[-61.5597,-1.4951],[-60.8062,-0.7401],[-60.0591,0.163],[-59.741,2.0629],[-59.7047,3.6891],[-60.0259,4.7057],[-60.8535,4.7028],[-62.148,4.0791],[-63.2336,3.8816],[-64.6236,4.1349],[-64.1844,3.4893]]]}},{"type":"Feature","properties":{"uf":"RS","state_name":"Rio Grande do Sul"},"geometry":{"type":"Polygon","coordinates":[[[-53.9475,-31.9546],[-52.7383,-32.1924],[-52.7767,-33.2831],[-51.6391,-31.2707],[-51.0225,-30.2842],[-51.0485,-31.0616],[-51.0401,-31.3599],[-49.9613,-28.7722],[-51.0015,-27.9632],[-52.4325,-27.2178],[-53.5997,-27.1894],[-54.8608,-27.6294],[-55.9882,-28.4981],[-57.5941,-30.179],[-55.9897,-30.8599],[-54.5156,-31.5102],[-53.9475,-31.9546]]]}},{"type":"Feature","properties":{"uf":"SC","state_name":"Santa Catarina"},"geometry":{"type":"Polygon","coordinates":[[[-52.4426,-26.4381],[-53.4309,-26.2821],[-53.7995,-27.1468],[-53.1396,-27.1757],[-52.5363,-27.2601],[-51.7173,-27.5114],[-50.9232,-28.012],[-50.0272,-28.4743],[-50.1456,-29.1978],[-48.7461,-28.4271],[-48.4064,-27.5071],[-48.6202,-26.7894],[-49.1675,-26.0007],[-50.2475,-26.0304],[-50.8997,-26.2893],[-51.5121,-26.5817],[-52.4426,-26.4381]]]}},{"type":"Feature","properties":{"uf":"SE","state_name":"Sergipe"},"geometry":{"type":"Polygon","coordinates":[[[-36.918,-10.1247],[-37.0331,-9.9876],[-37.2455,-9.8918],[-37.5724,-9.7386],[-37.8182,-9.5929],[-38.0207,-9.5621],[-38.0007,-9.8158],[-37.8331,-10.0192],[-37.7656,-10.1962],[-37.8394,-10.3813],[-37.8308,-10.585],[-37.9725,-10.7571],[-38.2092,-10.7581],[-38.1018,-11.0167],[-37.9813,-11.1992],[-37.9683,-11.3895],[-37.7592,-11.5253],[-37.5048,-11.5249],[-37.2997,-11.3637],[-36.9531,-10.8515],[-36.4088,-10.5127],[-36.5351,-10.4303],[-36.6837,-10.2708],[-36.8504,-10.1784],[-36.918,-10.1247]]]}},{"type":"Feature","properties":{"uf":"SP","state_name":"São Paulo"},"geometry":{"type":"MultiPolygon","coordinates":[[[[-46.6907,-21.8376],[-47.101,-20.682],[-48.1055,-20.1464],[-49.2501,-19.9693],[-51.3435,-20.3556],[-52.4562,-22.1853],[-51.9015,-22.6019],[-50.2039,-22.9528],[-49.4923,-23.9934],[-48.5674,-24.9723],[-46.493,-24.0385],[-44.8369,-23.3696],[-44.6459,-22.6039],[-45.7709,-22.8059],[-46.7195,-22.0833],[-46.6907,-21.8376]]],[[[-45.2904,-23.8691],[-45.4604,-23.8902],[-45.2376,-23.9091],[-45.2904,-23.8691]]]]}},{"type":"Feature","properties":{"uf":"TO","state_name":"Tocantins"},"geometry":{"type":"Polygon","coordinates":[[[-47.4303,-6.4226],[-48.6992,-5.3201],[-48.6261,-6.4785],[-49.3996,-8.5451],[-50.5414,-10.6093],[-50.7013,-12.6435],[-49.3031,-13.0288],[-48.1533,-13.2797],[-46.4546,-12.9712],[-46.3363,-11.9544],[-45.7269,-10.3125],[-46.5733,-9.4778],[-46.5077,-8.2696],[-47.6507,-7.3023],[-47.4303,-6.4226]]]}}]}